STARLINK-2132_new
1 17729C 21017H   21326.12657477  .00001299  00000-0  87018-4 0  3266
2 17729  53.0552 348.1601 0001714  47.5745 231.6994 15.06392499    12
STARLINK-2132_old
1 27729C 21017H   21325.16478082 -.00003436  00000-0 -23016-3 0  3255
2 27729  53.0548 352.4780 0001716  50.9835  49.5308 15.06411090    17
